start=new Date('2021-10-27T00:00:00.000Z').valueOf();
sats=[{"TLE_LINE1":"1 48559U 21041G   21299.42901648 -.00000683  00000-0 -26941-4 0  9991","SEMIMAJOR_AXIS":"6925.344","BSTAR":"-0.00002694100000","DECAY_DATE":null,"COUNTRY_CODE":"US","OBJECT_TYPE":"PAYLOAD","CENTER_NAME":"EARTH","APOAPSIS":"548.434","ELEMENT_SET_NO":"999","FILE":"3184921","REV_AT_EPOCH":"2475","MEAN_MOTION_DDOT":"0.0000000000000","INCLINATION":"53.0520","OBJECT_NAME":"STARLINK-2167","SITE":"AFETR","MEAN_ELEMENT_THEORY":"SGP4","CLASSIFICATION_TYPE":"U","EPOCH":"2021-10-26T10:17:47.023872","ECCENTRICITY":"0.00017690","TLE_LINE2":"2 48559  53.0520  93.0281 0001769  88.8583 271.2609 15.06401412 24753","MEAN_ANOMALY":"271.2609","RA_OF_ASC_NODE":"93.0281","PERIAPSIS":"545.984","EPHEMERIS_TYPE":"0","NORAD_CAT_ID":"48559","ARG_OF_PERICENTER":"88.8583","OBJECT_ID":"2021-041G","GP_ID":"188200923","LAUNCH_DATE":"2021-05-15","TIME_SYSTEM":"UTC","RCS_SIZE":"LARGE","MEAN_MOTION_DOT":"-0.00000683","MEAN_MOTION":"15.06401412","PERIOD":"95.592","REF_FRAME":"TEME"},{"MEAN_MOTION_DOT":"0.00001974","MEAN_MOTION":"15.06403827","PERIOD":"95.592","REF_FRAME":"TEME","TIME_SYSTEM":"UTC","RCS_SIZE":"LARGE","LAUNCH_DATE":"2021-05-15","NORAD_CAT_ID":"48560","OBJECT_ID":"2021-041H","ARG_OF_PERICENTER":"95.8812","GP_ID":"188200700","EPHEMERIS_TYPE":"0","PERIAPSIS":"546.095","MEAN_ANOMALY":"264.2359","RA_OF_ASC_NODE":"93.0233","OBJECT_NAME":"STARLINK-2173","ECCENTRICITY":"0.00015980","CLASSIFICATION_TYPE":"U","EPOCH":"2021-10-26T10:19:08.582880","SITE":"AFETR","MEAN_ELEMENT_THEORY":"SGP4","TLE_LINE2":"2 48560  53.0507  93.0233 0001598  95.8812 264.2359 15.06403827 25667","ELEMENT_SET_NO":"999","APOAPSIS":"548.308","FILE":"3184921","MEAN_MOTION_DDOT":"0.0000000000000","REV_AT_EPOCH":"2566","INCLINATION":"53.0507","TLE_LINE1":"1 48560U 21041H   21299.42996045  .00001974  00000-0  15139-3 0  9996","BSTAR":"0.00015139000000","SEMIMAJOR_AXIS":"6925.337","COUNTRY_CODE":"US","DECAY_DATE":null,"CENTER_NAME":"EARTH","OBJECT_TYPE":"PAYLOAD"},{"EPHEMERIS_TYPE":"0","PERIAPSIS":"480.741","OBJECT_ID":"2021-041J","ARG_OF_PERICENTER":"47.7762","NORAD_CAT_ID":"48561","GP_ID":"188174305","RCS_SIZE":"LARGE","TIME_SYSTEM":"UTC","LAUNCH_DATE":"2021-05-15","MEAN_MOTION_DOT":"-0.01067611","MEAN_MOTION":"15.27952434","REF_FRAME":"TEME","PERIOD":"94.244","TLE_LINE1":"1 48561U 21041J   21299.58337963 -.01067611  00000-0 -42135-1 0  9999","BSTAR":"-0.04213500000000","SEMIMAJOR_AXIS":"6860.071","DECAY_DATE":null,"COUNTRY_CODE":"US","CENTER_NAME":"EARTH","OBJECT_TYPE":"PAYLOAD","ELEMENT_SET_NO":"999","APOAPSIS":"483.131","FILE":"3184779","REV_AT_EPOCH":"2559","MEAN_MOTION_DDOT":"0.0000000000000","INCLINATION":"53.0571","OBJECT_NAME":"STARLINK-2186","CLASSIFICATION_TYPE":"U","EPOCH":"2021-10-26T14:00:04.000032","ECCENTRICITY":"0.00017420","SITE":"AFETR","MEAN_ELEMENT_THEORY":"SGP4","TLE_LINE2":"2 48561  53.0571  63.0075 0001742  47.7762 127.6474 15.27952434 25599","MEAN_ANOMALY":"127.6474","RA_OF_ASC_NODE":"63.0075"},{"MEAN_ANOMALY":"290.3080","RA_OF_ASC_NODE":"94.1768","OBJECT_NAME":"STARLINK-2187","MEAN_ELEMENT_THEORY":"SGP4","SITE":"AFETR","CLASSIFICATION_TYPE":"U","ECCENTRICITY":"0.00015250","EPOCH":"2021-10-26T04:07:38.149248","TLE_LINE2":"2 48562  53.0594  94.1768 0001525  69.8073 290.3080 15.06397087 24727","APOAPSIS":"548.279","ELEMENT_SET_NO":"999","FILE":"3184921","INCLINATION":"53.0594","MEAN_MOTION_DDOT":"0.0000000000000","REV_AT_EPOCH":"2472","TLE_LINE1":"1 48562U 21041K   21299.17196932  .00000958  00000-0  83181-4 0  9991","SEMIMAJOR_AXIS":"6925.357","BSTAR":"0.00008318100000","COUNTRY_CODE":"US","DECAY_DATE":null,"OBJECT_TYPE":"PAYLOAD","CENTER_NAME":"EARTH","MEAN_MOTION_DOT":"0.00000958","MEAN_MOTION":"15.06397087","REF_FRAME":"TEME","PERIOD":"95.592","LAUNCH_DATE":"2021-05-15","RCS_SIZE":"LARGE","TIME_SYSTEM":"UTC","ARG_OF_PERICENTER":"69.8073","OBJECT_ID":"2021-041K","NORAD_CAT_ID":"48562","GP_ID":"188201142","PERIAPSIS":"546.166","EPHEMERIS_TYPE":"0"},{"TLE_LINE2":"2 48563  53.0568  92.9088 0002059  83.2105 276.9118 15.06403027 25218","OBJECT_NAME":"STARLINK-2188","ECCENTRICITY":"0.00020590","CLASSIFICATION_TYPE":"U","EPOCH":"2021-10-26T10:56:18.014784","SITE":"AFETR","MEAN_ELEMENT_THEORY":"SGP4","MEAN_ANOMALY":"276.9118","RA_OF_ASC_NODE":"92.9088","DECAY_DATE":null,"COUNTRY_CODE":"US","CENTER_NAME":"EARTH","OBJECT_TYPE":"PAYLOAD","TLE_LINE1":"1 48563U 21041L   21299.45576406  .00000202  00000-0  32449-4 0  9994","BSTAR":"0.00003244900000","SEMIMAJOR_AXIS":"6925.339","FILE":"3185071","MEAN_MOTION_DDOT":"0.0000000000000","INCLINATION":"53.0568","REV_AT_EPOCH":"2521","ELEMENT_SET_NO":"999","APOAPSIS":"548.630","TIME_SYSTEM":"UTC","RCS_SIZE":"LARGE","LAUNCH_DATE":"2021-05-15","PERIOD":"95.592","REF_FRAME":"TEME","MEAN_MOTION_DOT":"0.00000202","MEAN_MOTION":"15.06403027","EPHEMERIS_TYPE":"0","PERIAPSIS":"545.778","GP_ID":"188203475","OBJECT_ID":"2021-041L","NORAD_CAT_ID":"48563","ARG_OF_PERICENTER":"83.2105"},{"OBJECT_TYPE":"PAYLOAD","CENTER_NAME":"EARTH","COUNTRY_CODE":"US","DECAY_DATE":null,"SEMIMAJOR_AXIS":"6925.355","BSTAR":"0.00010552000000","TLE_LINE1":"1 48564U 21041M   21299.44840856  .00001291  00000-0  10552-3 0  9996","FILE":"3185076","MEAN_MOTION_DDOT":"0.0000000000000","REV_AT_EPOCH":"2516","INCLINATION":"53.0561","APOAPSIS":"548.174","ELEMENT_SET_NO":"999","TLE_LINE2":"2 48564  53.0561  92.9348 0001378  88.5473 271.5674 15.06397878 25168","SITE":"AFETR","MEAN_ELEMENT_THEORY":"SGP4","EPOCH":"2021-10-26T10:45:42.499584","CLASSIFICATION_TYPE":"U","ECCENTRICITY":"0.00013780","OBJECT_NAME":"STARLINK-2190","RA_OF_ASC_NODE":"92.9348","MEAN_ANOMALY":"271.5674","PERIAPSIS":"546.266","EPHEMERIS_TYPE":"0","GP_ID":"188203843","ARG_OF_PERICENTER":"88.5473","OBJECT_ID":"2021-041M","NORAD_CAT_ID":"48564","LAUNCH_DATE":"2021-05-15","TIME_SYSTEM":"UTC","RCS_SIZE":"LARGE","REF_FRAME":"TEME","PERIOD":"95.592","MEAN_MOTION":"15.06397878","MEAN_MOTION_DOT":"0.00001291"},{"DECAY_DATE":null,"COUNTRY_CODE":"US","CENTER_NAME":"EARTH","OBJECT_TYPE":"PAYLOAD","TLE_LINE1":"1 48565U 21041N   21299.44470495  .00002140  00000-0  16250-3 0  9990","BSTAR":"0.00016250000000","SEMIMAJOR_AXIS":"6925.349","MEAN_MOTION_DDOT":"0.0000000000000","FILE":"3185078","INCLINATION":"53.0575","REV_AT_EPOCH":"2521","ELEMENT_SET_NO":"999","APOAPSIS":"548.273","TLE_LINE2":"2 48565  53.0575  92.9539 0001529  91.5472 268.5692 15.06399718 25214","OBJECT_NAME":"STARLINK-2191","CLASSIFICATION_TYPE":"U","EPOCH":"2021-10-26T10:40:22.507680","ECCENTRICITY":"0.00015290","SITE":"AFETR","MEAN_ELEMENT_THEORY":"SGP4","MEAN_ANOMALY":"268.5692","RA_OF_ASC_NODE":"92.9539","EPHEMERIS_TYPE":"0","PERIAPSIS":"546.156","GP_ID":"188203857","ARG_OF_PERICENTER":"91.5472","OBJECT_ID":"2021-041N","NORAD_CAT_ID":"48565","TIME_SYSTEM":"UTC","RCS_SIZE":"LARGE","LAUNCH_DATE":"2021-05-15","REF_FRAME":"TEME","PERIOD":"95.592","MEAN_MOTION_DOT":"0.00002140","MEAN_MOTION":"15.06399718"},{"GP_ID":"188200808","ARG_OF_PERICENTER":"88.4354","OBJECT_ID":"2021-041P","NORAD_CAT_ID":"48566","PERIAPSIS":"546.053","EPHEMERIS_TYPE":"0","REF_FRAME":"TEME","PERIOD":"95.592","MEAN_MOTION_DOT":"0.00000943","MEAN_MOTION":"15.06405964","LAUNCH_DATE":"2021-05-15","RCS_SIZE":"LARGE","TIME_SYSTEM":"UTC","FILE":"3184921","REV_AT_EPOCH":"2458","MEAN_MOTION_DDOT":"0.0000000000000","INCLINATION":"53.0552","APOAPSIS":"548.338","ELEMENT_SET_NO":"999","COUNTRY_CODE":"US","DECAY_DATE":null,"OBJECT_TYPE":"PAYLOAD","CENTER_NAME":"EARTH","TLE_LINE1":"1 48566U 21041P   21299.20325139  .00000943  00000-0  82165-4 0  9997","BSTAR":"0.00008216500000","SEMIMAJOR_AXIS":"6925.330","MEAN_ANOMALY":"271.6824","RA_OF_ASC_NODE":"104.0319","TLE_LINE2":"2 48566  53.0552 104.0319 0001650  88.4354 271.6824 15.06405964 24582","OBJECT_NAME":"STARLINK-2214","SITE":"AFETR","MEAN_ELEMENT_THEORY":"SGP4","EPOCH":"2021-10-26T04:52:40.920096","CLASSIFICATION_TYPE":"U","ECCENTRICITY":"0.00016500"},{"LAUNCH_DATE":"2021-05-15","TIME_SYSTEM":"UTC","RCS_SIZE":"LARGE","MEAN_MOTION_DOT":"0.00000931","MEAN_MOTION":"15.06393462","PERIOD":"95.593","REF_FRAME":"TEME","PERIAPSIS":"546.104","EPHEMERIS_TYPE":"0","NORAD_CAT_ID":"48567","ARG_OF_PERICENTER":"85.3862","OBJECT_ID":"2021-041Q","GP_ID":"188204332","OBJECT_NAME":"STARLINK-2215","MEAN_ELEMENT_THEORY":"SGP4","SITE":"AFETR","EPOCH":"2021-10-26T11:32:10.076352","CLASSIFICATION_TYPE":"U","ECCENTRICITY":"0.00016310","TLE_LINE2":"2 48567  53.0543 102.7803 0001631  85.3862 274.7313 15.06393462 25021","MEAN_ANOMALY":"274.7313","RA_OF_ASC_NODE":"102.7803","TLE_LINE1":"1 48567U 21041Q   21299.48067218  .00000931  00000-0  81422-4 0  9991","BSTAR":"0.00008142200000","SEMIMAJOR_AXIS":"6925.369","DECAY_DATE":null,"COUNTRY_CODE":"US","OBJECT_TYPE":"PAYLOAD","CENTER_NAME":"EARTH","APOAPSIS":"548.363","ELEMENT_SET_NO":"999","FILE":"3185076","INCLINATION":"53.0543","MEAN_MOTION_DDOT":"0.0000000000000","REV_AT_EPOCH":"2502"},{"PERIAPSIS":"546.127","EPHEMERIS_TYPE":"0","GP_ID":"188200701","NORAD_CAT_ID":"48568","OBJECT_ID":"2021-041R","ARG_OF_PERICENTER":"83.6454","LAUNCH_DATE":"2021-05-15","TIME_SYSTEM":"UTC","RCS_SIZE":"LARGE","PERIOD":"95.592","REF_FRAME":"TEME","MEAN_MOTION_DOT":"-0.00000292","MEAN_MOTION":"15.06395168","DECAY_DATE":null,"COUNTRY_CODE":"US","OBJECT_TYPE":"PAYLOAD","CENTER_NAME":"EARTH","TLE_LINE1":"1 48568U 21041R   21299.42627825 -.00000292  00000-0 -72441-6 0  9997","BSTAR":"-0.00000072441000","SEMIMAJOR_AXIS":"6925.363","FILE":"3184921","REV_AT_EPOCH":"2475","MEAN_MOTION_DDOT":"0.0000000000000","INCLINATION":"53.0520","APOAPSIS":"548.330","ELEMENT_SET_NO":"999","TLE_LINE2":"2 48568  53.0520  93.0366 0001590  83.6454 276.4716 15.06395168 24755","OBJECT_NAME":"STARLINK-2217","SITE":"AFETR","MEAN_ELEMENT_THEORY":"SGP4","CLASSIFICATION_TYPE":"U","EPOCH":"2021-10-26T10:13:50.440800","ECCENTRICITY":"0.00015900","MEAN_ANOMALY":"276.4716","RA_OF_ASC_NODE":"93.0366"}];
